[{"spaceTrack":{"CCSDS_OMM_VERS":"2.0","COMMENT":"GENERATED VIA SPACE-TRACK.ORG API","CREATION_DATE":"2020-09-20 14:46:10","ORIGINATOR":"18 SPCS","OBJECT_NAME":"STARLINK-1065","OBJECT_ID":"2019-074BK","CENTER_NAME":"EARTH","REF_FRAME":"TEME","TIME_SYSTEM":"UTC","MEAN_ELEMENT_THEORY":"SGP4","EPOCH":"2020-09-20 03:32:28.014144","MEAN_MOTION":15.06230336,"ECCENTRICITY":0.0000844,"INCLINATION":53.0042,"RA_OF_ASC_NODE":188.9789,"ARG_OF_PERICENTER":40.412,"MEAN_ANOMALY":319.6931,"EPHEMERIS_TYPE":0,"CLASSIFICATION_TYPE":"U","NORAD_CAT_ID":44770,"ELEMENT_SET_NO":999,"REV_AT_EPOCH":4745,"BSTAR":0.000088044,"MEAN_MOTION_DOT":0.00001025,"MEAN_MOTION_DDOT":0,"SEMIMAJOR_AXIS":6925.868,"PERIOD":95.602,"APOAPSIS":548.318,"PERIAPSIS":547.149,"OBJECT_TYPE":"PAYLOAD","RCS_SIZE":"LARGE","COUNTRY_CODE":"US","LAUNCH_DATE":"2019-11-11","SITE":"AFETR","DECAY_DATE":null,"DECAYED":0,"FILE":2829293,"GP_ID":161775709,"TLE_LINE0":"0 STARLINK-1065","TLE_LINE1":"1 44770U 19074BK  20264.14754646  .00001025  00000-0  88044-4 0  9990","TLE_LINE2":"2 44770  53.0042 188.9789 0000844  40.4120 319.6931 15.06230336 47456"},"version":"v1.0","launch":"5eb87d39ffd86e000604b37d","longitude":147.5197421135848,"latitude":-18.587129076932815,"height_km":553.3565416705351,"velocity_kms":7.584962886130073,"id":"5eed7714096e59000698567d"},{"spaceTrack":{"CCSDS_OMM_VERS":"2.0","COMMENT":"GENERATED VIA SPACE-TRACK.ORG API","CREATION_DATE":"2020-09-19 22:46:10","ORIGINATOR":"18 SPCS","OBJECT_NAME":"STARLINK-1062","OBJECT_ID":"2019-074BG","CENTER_NAME":"EARTH","REF_FRAME":"TEME","TIME_SYSTEM":"UTC","MEAN_ELEMENT_THEORY":"SGP4","EPOCH":"2020-09-19 22:00:00.999936","MEAN_MOTION":15.05615894,"ECCENTRICITY":0.0001954,"INCLINATION":53.0009,"RA_OF_ASC_NODE":190.4761,"ARG_OF_PERICENTER":78.6251,"MEAN_ANOMALY":309.4111,"EPHEMERIS_TYPE":0,"CLASSIFICATION_TYPE":"U","NORAD_CAT_ID":44767,"ELEMENT_SET_NO":999,"REV_AT_EPOCH":4741,"BSTAR":-0.0019691,"MEAN_MOTION_DOT":-0.00028881,"MEAN_MOTION_DDOT":0,"SEMIMAJOR_AXIS":6927.752,"PERIOD":95.641,"APOAPSIS":550.971,"PERIAPSIS":548.264,"OBJECT_TYPE":"PAYLOAD","RCS_SIZE":"LARGE","COUNTRY_CODE":"US","LAUNCH_DATE":"2019-11-11","SITE":"AFETR","DECAY_DATE":null,"DECAYED":0,"FILE":2828431,"GP_ID":161736590,"TLE_LINE0":"0 STARLINK-1062","TLE_LINE1":"1 44767U 19074BG  20263.91667824 -.00028881  00000-0 -19691-2 0  9992","TLE_LINE2":"2 44767  53.0009 190.4761 0001954  78.6251 309.4111 15.05615894 47412"},"version":"v1.0","launch":"5eb87d39ffd86e000604b37d","longitude":-18.256097714192787,"latitude":32.35657536013198,"height_km":550.7777429221933,"velocity_kms":7.591285931725285,"id":"5eed7714096e59000698567f"},{"spaceTrack":{"CCSDS_OMM_VERS":"2.0","COMMENT":"GENERATED VIA SPACE-TRACK.ORG API","CREATION_DATE":"2020-09-19 22:46:10","ORIGINATOR":"18 SPCS","OBJECT_NAME":"STARLINK-1049","OBJECT_ID":"2019-074AT","CENTER_NAME":"EARTH","REF_FRAME":"TEME","TIME_SYSTEM":"UTC","MEAN_ELEMENT_THEORY":"SGP4","EPOCH":"2020-09-19 20:00:01.000224","MEAN_MOTION":15.05599951,"ECCENTRICITY":0.0001519,"INCLINATION":52.9996,"RA_OF_ASC_NODE":150.8542,"ARG_OF_PERICENTER":83.9406,"MEAN_ANOMALY":285.9724,"EPHEMERIS_TYPE":0,"CLASSIFICATION_TYPE":"U","NORAD_CAT_ID":44754,"ELEMENT_SET_NO":999,"REV_AT_EPOCH":4795,"BSTAR":-0.0025289,"MEAN_MOTION_DOT":-0.00036954,"MEAN_MOTION_DDOT":0,"SEMIMAJOR_AXIS":6927.801,"PERIOD":95.642,"APOAPSIS":550.719,"PERIAPSIS":548.614,"OBJECT_TYPE":"PAYLOAD","RCS_SIZE":"LARGE","COUNTRY_CODE":"US","LAUNCH_DATE":"2019-11-11","SITE":"AFETR","DECAY_DATE":null,"DECAYED":0,"FILE":2828434,"GP_ID":161736553,"TLE_LINE0":"0 STARLINK-1049","TLE_LINE1":"1 44754U 19074AT  20263.83334491 -.00036954  00000-0 -25289-2 0  9990","TLE_LINE2":"2 44754  52.9996 150.8542 0001519  83.9406 285.9724 15.05599951 47958"},"version":"v1.0","launch":"5eb87d39ffd86e000604b37d","longitude":42.256931537066095,"latitude":46.09420462726796,"height_km":553.863566873556,"velocity_kms":7.590979230710598,"id":"5eed7714096e590006985680"},{"spaceTrack":{"CCSDS_OMM_VERS":"2.0","COMMENT":"GENERATED VIA SPACE-TRACK.ORG API","CREATION_DATE":"2020-09-20 02:31:57","ORIGINATOR":"18 SPCS","OBJECT_NAME":"STARLINK-1061","OBJECT_ID":"2019-074BF","CENTER_NAME":"EARTH","REF_FRAME":"TEME","TIME_SYSTEM":"UTC","MEAN_ELEMENT_THEORY":"SGP4","EPOCH":"2020-09-19 20:00:01.000224","MEAN_MOTION":15.05582281,"ECCENTRICITY":0.0001509,"INCLINATION":53.0009,"RA_OF_ASC_NODE":190.8525,"ARG_OF_PERICENTER":63.5828,"MEAN_ANOMALY":196.4667,"EPHEMERIS_TYPE":0,"CLASSIFICATION_TYPE":"U","NORAD_CAT_ID":44766,"ELEMENT_SET_NO":999,"REV_AT_EPOCH":180,"BSTAR":0.000025322,"MEAN_MOTION_DOT":9e-7,"MEAN_MOTION_DDOT":0,"SEMIMAJOR_AXIS":6927.855,"PERIOD":95.644,"APOAPSIS":550.766,"PERIAPSIS":548.675,"OBJECT_TYPE":"PAYLOAD","RCS_SIZE":"LARGE","COUNTRY_CODE":"US","LAUNCH_DATE":"2019-11-11","SITE":"AFETR","DECAY_DATE":null,"DECAYED":0,"FILE":2828634,"GP_ID":161762121,"TLE_LINE0":"0 STARLINK-1061","TLE_LINE1":"1 44766U 19074BF  20263.83334491 +.00000090 +00000-0 +25322-4 0  9993","TLE_LINE2":"2 44766 053.0009 190.8525 0001509 063.5828 196.4667 15.05582281001808"},"version":"v1.0","launch":"5eb87d39ffd86e000604b37d","longitude":-43.05675245167266,"latitude":4.726799390988042,"height_km":549.5785337476136,"velocity_kms":7.588964059707067,"id":"5eed7714096e590006985681"},{"spaceTrack":{"CCSDS_OMM_VERS":"2.0","COMMENT":"GENERATED VIA SPACE-TRACK.ORG API","CREATION_DATE":"2020-09-19 22:46:10","ORIGINATOR":"18 SPCS","OBJECT_NAME":"STARLINK-1043","OBJECT_ID":"2019-074AM","CENTER_NAME":"EARTH","REF_FRAME":"TEME","TIME_SYSTEM":"UTC","MEAN_ELEMENT_THEORY":"SGP4","EPOCH":"2020-09-19 20:00:01.000224","MEAN_MOTION":15.05590669,"ECCENTRICITY":0.0001668,"INCLINATION":52.9995,"RA_OF_ASC_NODE":190.8536,"ARG_OF_PERICENTER":80.4585,"MEAN_ANOMALY":125.5784,"EPHEMERIS_TYPE":0,"CLASSIFICATION_TYPE":"U","NORAD_CAT_ID":44748,"ELEMENT_SET_NO":999,"REV_AT_EPOCH":4740,"BSTAR":0.000096253,"MEAN_MOTION_DOT":0.00001124,"MEAN_MOTION_DDOT":0,"SEMIMAJOR_AXIS":6927.83,"PERIOD":95.643,"APOAPSIS":550.85,"PERIAPSIS":548.539,"OBJECT_TYPE":"PAYLOAD","RCS_SIZE":"LARGE","COUNTRY_CODE":"US","LAUNCH_DATE":"2019-11-11","SITE":"AFETR","DECAY_DATE":null,"DECAYED":0,"FILE":2828427,"GP_ID":161737038,"TLE_LINE0":"0 STARLINK-1043","TLE_LINE1":"1 44748U 19074AM  20263.83334491  .00001124  00000-0  96253-4 0  9993","TLE_LINE2":"2 44748  52.9995 190.8536 0001668  80.4585 125.5784 15.05590669 47404"},"version":"v1.0","launch":"5eb87d39ffd86e000604b37d","longitude":-80.4512655782651,"latitude":-36.61661489516007,"height_km":562.1961592009657,"velocity_kms":7.579646487213469,"id":"5eed7714096e590006985684"},{"spaceTrack":{"CCSDS_OMM_VERS":"2.0","COMMENT":"GENERATED VIA SPACE-TRACK.ORG API","CREATION_DATE":"2020-09-20 14:46:10","ORIGINATOR":"18 SPCS","OBJECT_NAME":"STARLINK-1044","OBJECT_ID":"2019-074AN","CENTER_NAME":"EARTH","REF_FRAME":"TEME","TIME_SYSTEM":"UTC","MEAN_ELEMENT_THEORY":"SGP4","EPOCH":"2020-09-20 14:00:01.000224","MEAN_MOTION":15.0547019,"ECCENTRICITY":0.0001506,"INCLINATION":53.001,"RA_OF_ASC_NODE":167.4877,"ARG_OF_PERICENTER":64.5825,"MEAN_ANOMALY":68.5649,"EPHEMERIS_TYPE":0,"CLASSIFICATION_TYPE":"U","NORAD_CAT_ID":44749,"ELEMENT_SET_NO":999,"REV_AT_EPOCH":4778,"BSTAR":0.011994,"MEAN_MOTION_DOT":0.00178431,"MEAN_MOTION_DDOT":0,"SEMIMAJOR_AXIS":6928.199,"PERIOD":95.651,"APOAPSIS":551.108,"PERIAPSIS":549.021,"OBJECT_TYPE":"PAYLOAD","RCS_SIZE":"LARGE","COUNTRY_CODE":"US","LAUNCH_DATE":"2019-11-11","SITE":"AFETR","DECAY_DATE":null,"DECAYED":0,"FILE":2829292,"GP_ID":161775197,"TLE_LINE0":"0 STARLINK-1044","TLE_LINE1":"1 44749U 19074AN  20264.58334491  .00178431  00000-0  11994-1 0  9999","TLE_LINE2":"2 44749  53.0010 167.4877 0001506  64.5825  68.5649 15.05470190 47787"},"version":"v1.0","launch":"5eb87d39ffd86e000604b37d","longitude":79.43414452407525,"latitude":36.702110371359055,"height_km":552.4905980179001,"velocity_kms":7.59046150931617,"id":"5eed7714096e59000698568a"},{"spaceTrack":{"CCSDS_OMM_VERS":"2.0","COMMENT":"GENERATED VIA SPACE-TRACK.ORG API","CREATION_DATE":"2020-09-19 22:46:10","ORIGINATOR":"18 SPCS","OBJECT_NAME":"STARLINK-1026","OBJECT_ID":"2019-074U","CENTER_NAME":"EARTH","REF_FRAME":"TEME","TIME_SYSTEM":"UTC","MEAN_ELEMENT_THEORY":"SGP4","EPOCH":"2020-09-19 20:00:01.000224","MEAN_MOTION":15.05615435,"ECCENTRICITY":0.0001425,"INCLINATION":53.0001,"RA_OF_ASC_NODE":150.8551,"ARG_OF_PERICENTER":91.6507,"MEAN_ANOMALY":134.2051,"EPHEMERIS_TYPE":0,"CLASSIFICATION_TYPE":"U","NORAD_CAT_ID":44731,"ELEMENT_SET_NO":999,"REV_AT_EPOCH":4795,"BSTAR":-0.0020194,"MEAN_MOTION_DOT":-0.00029608,"MEAN_MOTION_DDOT":0,"SEMIMAJOR_AXIS":6927.754,"PERIOD":95.641,"APOAPSIS":550.606,"PERIAPSIS":548.631,"OBJECT_TYPE":"PAYLOAD","RCS_SIZE":"LARGE","COUNTRY_CODE":"US","LAUNCH_DATE":"2019-11-11","SITE":"AFETR","DECAY_DATE":null,"DECAYED":0,"FILE":2828420,"GP_ID":161736472,"TLE_LINE0":"0 STARLINK-1026","TLE_LINE1":"1 44731U 19074U   20263.83334491 -.00029608  00000-0 -20194-2 0  9993","TLE_LINE2":"2 44731  53.0001 150.8551 0001425  91.6507 134.2051 15.05615435 47951"},"version":"v1.0","launch":"5eb87d39ffd86e000604b37d","longitude":-104.5661199190154,"latitude":-22.3659308894679,"height_km":556.6074498112312,"velocity_kms":7.5830769235325555,"id":"5eed7714096e59000698568b"}]